start=new Date('2021-10-31T00:00:00.000Z').valueOf();
sats=[{"CENTER_NAME":"EARTH","RCS_SIZE":"LARGE","MEAN_ELEMENT_THEORY":"SGP4","NORAD_CAT_ID":"46042","FILE":"3193120","ARG_OF_PERICENTER":"85.8677","RA_OF_ASC_NODE":"69.1509","TIME_SYSTEM":"UTC","TLE_LINE1":"1 46042U 20055R   21303.63423151  .00000708  00000-0  66395-4 0  9990","DECAY_DATE":null,"ECCENTRICITY":"0.00011460","OBJECT_TYPE":"PAYLOAD","LAUNCH_DATE":"2020-08-07","SEMIMAJOR_AXIS":"6925.359","EPHEMERIS_TYPE":"0","OBJECT_ID":"2020-055R","MEAN_MOTION_DDOT":"0.0000000000000","SITE":"AFETR","REF_FRAME":"TEME","MEAN_ANOMALY":"274.2443","MEAN_MOTION":"15.06396658","REV_AT_EPOCH":"6857","TLE_LINE2":"2 46042  53.0559  69.1509 0001146  85.8677 274.2443 15.06396658 68579","APOAPSIS":"548.017","COUNTRY_CODE":"US","GP_ID":"188522060","ELEMENT_SET_NO":"999","PERIOD":"95.592","PERIAPSIS":"546.430","MEAN_MOTION_DOT":"0.00000708","EPOCH":"2021-10-30T15:13:17.602464","INCLINATION":"53.0559","CLASSIFICATION_TYPE":"U","OBJECT_NAME":"STARLINK-1581","BSTAR":"0.00006639500000"},{"INCLINATION":"53.0557","EPOCH":"2021-10-30T15:02:40.622784","PERIAPSIS":"546.192","MEAN_MOTION_DOT":"0.00000513","PERIOD":"95.592","ELEMENT_SET_NO":"999","CLASSIFICATION_TYPE":"U","BSTAR":"0.00005333600000","OBJECT_NAME":"STARLINK-1582","MEAN_ANOMALY":"283.0354","REF_FRAME":"TEME","SITE":"AFETR","TLE_LINE2":"2 46043  53.0557  69.1835 0001484  77.0800 283.0354 15.06398051 68563","REV_AT_EPOCH":"6856","MEAN_MOTION":"15.06398051","GP_ID":"188522084","COUNTRY_CODE":"US","APOAPSIS":"548.247","DECAY_DATE":null,"OBJECT_TYPE":"PAYLOAD","ECCENTRICITY":"0.00014840","EPHEMERIS_TYPE":"0","LAUNCH_DATE":"2020-08-07","SEMIMAJOR_AXIS":"6925.355","MEAN_MOTION_DDOT":"0.0000000000000","OBJECT_ID":"2020-055S","MEAN_ELEMENT_THEORY":"SGP4","NORAD_CAT_ID":"46043","RCS_SIZE":"LARGE","CENTER_NAME":"EARTH","TLE_LINE1":"1 46043U 20055S   21303.62685906  .00000513  00000-0  53336-4 0  9993","RA_OF_ASC_NODE":"69.1835","TIME_SYSTEM":"UTC","ARG_OF_PERICENTER":"77.0800","FILE":"3193122"},{"CENTER_NAME":"EARTH","RCS_SIZE":"LARGE","MEAN_ELEMENT_THEORY":"SGP4","NORAD_CAT_ID":"46044","FILE":"3192905","ARG_OF_PERICENTER":"80.4379","RA_OF_ASC_NODE":"70.0030","TIME_SYSTEM":"UTC","TLE_LINE1":"1 46044U 20055T   21303.44255529  .00001122  00000-0  94218-4 0  9999","DECAY_DATE":null,"ECCENTRICITY":"0.00012820","OBJECT_TYPE":"PAYLOAD","SEMIMAJOR_AXIS":"6925.333","LAUNCH_DATE":"2020-08-07","EPHEMERIS_TYPE":"0","OBJECT_ID":"2020-055T","MEAN_MOTION_DDOT":"0.0000000000000","SITE":"AFETR","REF_FRAME":"TEME","MEAN_ANOMALY":"279.6755","MEAN_MOTION":"15.06405093","TLE_LINE2":"2 46044  53.0552  70.0030 0001282  80.4379 279.6755 15.06405093 69058","REV_AT_EPOCH":"6905","APOAPSIS":"548.086","COUNTRY_CODE":"US","GP_ID":"188512977","PERIOD":"95.592","ELEMENT_SET_NO":"999","MEAN_MOTION_DOT":"0.00001122","PERIAPSIS":"546.310","INCLINATION":"53.0552","EPOCH":"2021-10-30T10:37:16.777056","CLASSIFICATION_TYPE":"U","OBJECT_NAME":"STARLINK-1584","BSTAR":"0.00009421800000"},{"GP_ID":"188522100","COUNTRY_CODE":"US","APOAPSIS":"548.148","TLE_LINE2":"2 46045  53.0546  69.0665 0001369  83.4062 276.7083 15.06404420 68573","REV_AT_EPOCH":"6857","MEAN_MOTION":"15.06404420","MEAN_ANOMALY":"276.7083","REF_FRAME":"TEME","SITE":"AFETR","BSTAR":"0.00014110000000","OBJECT_NAME":"STARLINK-1591","CLASSIFICATION_TYPE":"U","INCLINATION":"53.0546","EPOCH":"2021-10-30T15:39:49.518144","PERIAPSIS":"546.252","MEAN_MOTION_DOT":"0.00001821","ELEMENT_SET_NO":"999","PERIOD":"95.592","TLE_LINE1":"1 46045U 20055U   21303.65265646  .00001821  00000-0  14110-3 0  9992","TIME_SYSTEM":"UTC","RA_OF_ASC_NODE":"69.0665","ARG_OF_PERICENTER":"83.4062","FILE":"3193123","NORAD_CAT_ID":"46045","MEAN_ELEMENT_THEORY":"SGP4","RCS_SIZE":"LARGE","CENTER_NAME":"EARTH","MEAN_MOTION_DDOT":"0.0000000000000","OBJECT_ID":"2020-055U","EPHEMERIS_TYPE":"0","LAUNCH_DATE":"2020-08-07","SEMIMAJOR_AXIS":"6925.335","OBJECT_TYPE":"PAYLOAD","ECCENTRICITY":"0.00013690","DECAY_DATE":null},{"MEAN_MOTION_DOT":"0.00424682","PERIAPSIS":"431.650","ELEMENT_SET_NO":"999","PERIOD":"93.259","INCLINATION":"53.0565","EPOCH":"2021-10-30T19:20:35.457216","OBJECT_NAME":"STARLINK-1514","BSTAR":"0.00865940000000","CLASSIFICATION_TYPE":"U","MEAN_MOTION":"15.44088862","REV_AT_EPOCH":"6889","TLE_LINE2":"2 46046  53.0565  47.2477 0003535 298.9823  61.0828 15.44088862 68896","REF_FRAME":"TEME","SITE":"AFETR","MEAN_ANOMALY":"61.0828","APOAPSIS":"436.467","GP_ID":"188521219","COUNTRY_CODE":"US","OBJECT_TYPE":"PAYLOAD","ECCENTRICITY":"0.00035350","DECAY_DATE":null,"OBJECT_ID":"2020-055V","MEAN_MOTION_DDOT":"0.0000000000000","LAUNCH_DATE":"2020-08-07","SEMIMAJOR_AXIS":"6812.194","EPHEMERIS_TYPE":"0","RCS_SIZE":"LARGE","CENTER_NAME":"EARTH","MEAN_ELEMENT_THEORY":"SGP4","NORAD_CAT_ID":"46046","FILE":"3193082","ARG_OF_PERICENTER":"298.9823","TLE_LINE1":"1 46046U 20055V   21303.80596594  .00424682  00000-0  86594-2 0  9997","RA_OF_ASC_NODE":"47.2477","TIME_SYSTEM":"UTC"},{"OBJECT_ID":"2020-055W","MEAN_MOTION_DDOT":"0.0000000000000","LAUNCH_DATE":"2020-08-07","SEMIMAJOR_AXIS":"6925.355","EPHEMERIS_TYPE":"0","ECCENTRICITY":"0.00013480","OBJECT_TYPE":"PAYLOAD","DECAY_DATE":null,"FILE":"3193083","ARG_OF_PERICENTER":"76.6326","TIME_SYSTEM":"UTC","RA_OF_ASC_NODE":"58.9847","TLE_LINE1":"1 46047U 20055W   21303.67200912  .00000679  00000-0  64491-4 0  9999","CENTER_NAME":"EARTH","RCS_SIZE":"LARGE","MEAN_ELEMENT_THEORY":"SGP4","NORAD_CAT_ID":"46047","OBJECT_NAME":"STARLINK-1524","BSTAR":"0.00006449100000","CLASSIFICATION_TYPE":"U","ELEMENT_SET_NO":"999","PERIOD":"95.592","PERIAPSIS":"546.287","MEAN_MOTION_DOT":"0.00000679","INCLINATION":"53.0563","EPOCH":"2021-10-30T16:07:41.587968","APOAPSIS":"548.154","COUNTRY_CODE":"US","GP_ID":"188521659","MEAN_MOTION":"15.06397781","REV_AT_EPOCH":"6871","TLE_LINE2":"2 46047  53.0563  58.9847 0001348  76.6326 283.4813 15.06397781 68710","SITE":"AFETR","REF_FRAME":"TEME","MEAN_ANOMALY":"283.4813"},{"BSTAR":"0.00025205000000","OBJECT_NAME":"STARLINK-1527","CLASSIFICATION_TYPE":"U","INCLINATION":"53.0532","EPOCH":"2021-10-30T14:26:50.456832","ELEMENT_SET_NO":"999","PERIOD":"95.592","PERIAPSIS":"546.116","MEAN_MOTION_DOT":"0.00003476","COUNTRY_CODE":"US","GP_ID":"188513477","APOAPSIS":"548.260","TLE_LINE2":"2 46048  53.0532  59.2906 0001548  89.5865 270.5302 15.06408320 69195","REV_AT_EPOCH":"6919","MEAN_MOTION":"15.06408320","MEAN_ANOMALY":"270.5302","SITE":"AFETR","REF_FRAME":"TEME","MEAN_MOTION_DDOT":"0.0000000000000","OBJECT_ID":"2020-055X","EPHEMERIS_TYPE":"0","SEMIMAJOR_AXIS":"6925.323","LAUNCH_DATE":"2020-08-07","ECCENTRICITY":"0.00015480","OBJECT_TYPE":"PAYLOAD","DECAY_DATE":null,"TIME_SYSTEM":"UTC","RA_OF_ASC_NODE":"59.2906","TLE_LINE1":"1 46048U 20055X   21303.60197288  .00003476  00000-0  25205-3 0  9991","ARG_OF_PERICENTER":"89.5865","FILE":"3192905","MEAN_ELEMENT_THEORY":"SGP4","NORAD_CAT_ID":"46048","CENTER_NAME":"EARTH","RCS_SIZE":"LARGE"},{"APOAPSIS":"548.026","GP_ID":"188521245","COUNTRY_CODE":"US","REF_FRAME":"TEME","SITE":"AFETR","MEAN_ANOMALY":"274.8004","MEAN_MOTION":"15.06398759","REV_AT_EPOCH":"6870","TLE_LINE2":"2 46049  53.0554  58.7160 0001167  85.3118 274.8004 15.06398759 68704","CLASSIFICATION_TYPE":"U","OBJECT_NAME":"STARLINK-1530","BSTAR":"0.00000202640000","PERIAPSIS":"546.409","MEAN_MOTION_DOT":"-0.00000251","PERIOD":"95.592","ELEMENT_SET_NO":"999","EPOCH":"2021-10-30T17:32:37.185216","INCLINATION":"53.0554","FILE":"3193084","ARG_OF_PERICENTER":"85.3118","TLE_LINE1":"1 46049U 20055Y   21303.73098594 -.00000251  00000-0  20264-5 0  9997","RA_OF_ASC_NODE":"58.7160","TIME_SYSTEM":"UTC","RCS_SIZE":"LARGE","CENTER_NAME":"EARTH","MEAN_ELEMENT_THEORY":"SGP4","NORAD_CAT_ID":"46049","SEMIMAJOR_AXIS":"6925.352","LAUNCH_DATE":"2020-08-07","EPHEMERIS_TYPE":"0","OBJECT_ID":"2020-055Y","MEAN_MOTION_DDOT":"0.0000000000000","DECAY_DATE":null,"OBJECT_TYPE":"PAYLOAD","ECCENTRICITY":"0.00011670"},{"NORAD_CAT_ID":"46050","MEAN_ELEMENT_THEORY":"SGP4","RCS_SIZE":"LARGE","CENTER_NAME":"EARTH","TLE_LINE1":"1 46050U 20055Z   21303.58014906  .00002965  00000-0  77508-4 0  9992","TIME_SYSTEM":"UTC","RA_OF_ASC_NODE":"48.3069","FILE":"3192905","ARG_OF_PERICENTER":"44.3677","OBJECT_TYPE":"PAYLOAD","ECCENTRICITY":"0.00014300","DECAY_DATE":null,"MEAN_MOTION_DDOT":"0.0000000000000","OBJECT_ID":"2020-055Z","EPHEMERIS_TYPE":"0","LAUNCH_DATE":"2020-08-07","SEMIMAJOR_AXIS":"6817.797","REV_AT_EPOCH":"6937","TLE_LINE2":"2 46050  53.0563  48.3069 0001430  44.3677 315.7442 15.42185525 69377","MEAN_MOTION":"15.42185525","MEAN_ANOMALY":"315.7442","REF_FRAME":"TEME","SITE":"AFETR","GP_ID":"188513978","COUNTRY_CODE":"US","APOAPSIS":"440.637","INCLINATION":"53.0563","EPOCH":"2021-10-30T13:55:24.878784","PERIAPSIS":"438.687","MEAN_MOTION_DOT":"0.00002965","ELEMENT_SET_NO":"999","PERIOD":"93.374","BSTAR":"0.00007750800000","OBJECT_NAME":"STARLINK-1535","CLASSIFICATION_TYPE":"U"},{"APOAPSIS":"548.458","GP_ID":"188521386","COUNTRY_CODE":"US","MEAN_MOTION":"15.06342613","TLE_LINE2":"2 46051  53.0550  58.2529 0001543  79.7710 280.3453 15.06342613 68742","REV_AT_EPOCH":"6874","REF_FRAME":"TEME","SITE":"AFETR","MEAN_ANOMALY":"280.3453","OBJECT_NAME":"STARLINK-1540","BSTAR":"-0.00035165000000","CLASSIFICATION_TYPE":"U","PERIAPSIS":"546.321","MEAN_MOTION_DOT":"-0.00005507","ELEMENT_SET_NO":"999","PERIOD":"95.596","EPOCH":"2021-10-30T20:01:17.968800","INCLINATION":"53.0550","FILE":"3193105","ARG_OF_PERICENTER":"79.7710","TLE_LINE1":"1 46051U 20055AA  21303.83423575 -.00005507  00000-0 -35165-3 0  9996","RA_OF_ASC_NODE":"58.2529","TIME_SYSTEM":"UTC","RCS_SIZE":"LARGE","CENTER_NAME":"EARTH","MEAN_ELEMENT_THEORY":"SGP4","NORAD_CAT_ID":"46051","OBJECT_ID":"2020-055AA","MEAN_MOTION_DDOT":"0.0000000000000","SEMIMAJOR_AXIS":"6925.524","LAUNCH_DATE":"2020-08-07","EPHEMERIS_TYPE":"0","OBJECT_TYPE":"PAYLOAD","ECCENTRICITY":"0.00015430","DECAY_DATE":null}];
